STARLINK-37175          
1 68401U 26063X   26092.75002315 -.01858405  10462-2 -35380-2 0  9997
2 68401  97.2812 233.5601 0001605  70.4024 121.2648 16.00803270  2327
